GOES 19                 
1 60133U 24119A   26095.51619824 -.00000247  00000+0  00000+0 0  9990
2 60133   0.0443  41.5874 0001032  22.6159 240.2467  1.00271467  6230
ZHONGXING-3A            
1 60179U 24122A   26095.47988021 -.00000312  00000+0  00000+0 0  9990
2 60179   0.0447  20.5178 0003054  73.0612  14.5412  1.00271164  6582
TURKSAT 6A              
1 60233U 24127A   26095.53942501  .00000148  00000+0  00000+0 0  9992
2 60233   0.0352 211.2565 0001392 127.8226  90.9951  1.00269797  6281
FALCON 9 R/B            
1 60234U 24127B   26094.43149336 -.00000137  00000+0  44338-2 0  9990
2 60234  27.1389  19.5064 8345553 335.2913   1.5515  1.03940874  6325
YZ-1S R/B               
1 60326U 24048E   26070.26930114 -.00001290  00000+0  00000+0 0  9997
2 60326  17.2921 314.1444 8969376 229.1830 359.3704  0.47350856  3265
HULIANWAN GAOGUI-02 (H*)
1 60327U 24135A   26095.25133856 -.00000172  00000+0  00000+0 0  9997
2 60327   0.0505  18.6098 0008725 337.1857  81.2994  1.00273209  6764
ASBM-1                  
1 60422U 24143A   26088.05941437 -.00000012  00000+0  00000+0 0  9997
2 60422  62.7993  48.6139 5578104 269.1541  30.1274  1.50424205 10417
ASBM-2                  
1 60423U 24143B   26094.37564520 -.00000041  00000+0  00000+0 0  9996
2 60423  62.7722  48.4395 5576787 269.2231  30.1124  1.50423925 10492
ZHONGXING-4A            
1 60606U 24151A   26095.52475455 -.00000362  00000+0  00000+0 0  9990
2 60606   1.5025 271.6303 0001204 106.1994 123.1274  1.00273009  6022
HULIANWAN GAOGUI-03 (H*)
1 61503U 24181A   26094.01837918 -.00000242  00000+0  00000+0 0  9996
2 61503   0.0528  21.6745 0000740 110.0044 350.1418  1.00274413  6086
DSN-3 (KIRAMEKI-3)      
1 61733U 24198A   26095.56086498  .00000000  00000+0  00000+0 0  9990
2 61733   0.0164 201.7014 0000924 156.8374 181.2949  1.00270725  5190
KOREASAT 6A             
1 61910U 24206A   26095.57792394 -.00000360  00000+0  00000+0 0  9997
2 61910   0.0095 191.1586 0001104 184.2377 142.5337  1.00272324  5115
INTELSAT 33E DEB        
1 61988U 16053E   26094.84934765 -.00000275  00000+0  00000+0 0  9997
2 61988   1.5421  95.0887 0025678 109.8019 251.2514  0.99843949  5303
INTELSAT 33E DEB        
1 61989U 16053F   26094.61991946 -.00000003  00000+0  00000+0 0  9996
2 61989   2.3517 112.9693 0193317 150.4175 211.3212  0.98049920  5122
INTELSAT 33E DEB        
1 61990U 16053G   26094.60259984  .00000066  00000+0  00000+0 0  9994
2 61990   1.2790  75.0860 0147073 314.0411  45.4314  1.01394010  5407
INTELSAT 33E DEB        
1 61991U 16053H   26095.11979479 -.00000075  00000+0  00000+0 0  9991
2 61991   1.4827  93.5462 0122830 253.4818 105.9183  1.02042766  5444
INTELSAT 33E DEB        
1 61992U 16053J   26094.73373237 -.00000004  00000+0  00000+0 0  9991
2 61992   1.3734  84.8378 0057784 295.8864  64.2754  1.00792403  5377
