[{"OBJECT_NAME":"GOES 19","OBJECT_ID":"2024-119A","EPOCH":"2026-04-05T12:23:19.527936","MEAN_MOTION":1.00271467,"ECCENTRICITY":0.00010326,"INCLINATION":0.0443,"RA_OF_ASC_NODE":41.5874,"ARG_OF_PERICENTER":22.6159,"MEAN_ANOMALY":240.2467,"EPHEMERIS_TYPE":0,"CLASSIFICATION_TYPE":"U","NORAD_CAT_ID":60133,"ELEMENT_SET_NO":999,"REV_AT_EPOCH":623,"BSTAR":0,"MEAN_MOTION_DOT":-2.47e-6,"MEAN_MOTION_DDOT":0},{"OBJECT_NAME":"ZHONGXING-3A","OBJECT_ID":"2024-122A","EPOCH":"2026-04-05T11:31:01.650144","MEAN_MOTION":1.00271164,"ECCENTRICITY":0.0003054,"INCLINATION":0.0447,"RA_OF_ASC_NODE":20.5178,"ARG_OF_PERICENTER":73.0612,"MEAN_ANOMALY":14.5412,"EPHEMERIS_TYPE":0,"CLASSIFICATION_TYPE":"U","NORAD_CAT_ID":60179,"ELEMENT_SET_NO":999,"REV_AT_EPOCH":658,"BSTAR":0,"MEAN_MOTION_DOT":-3.12e-6,"MEAN_MOTION_DDOT":0},{"OBJECT_NAME":"TURKSAT 6A","OBJECT_ID":"2024-127A","EPOCH":"2026-04-05T12:56:46.320864","MEAN_MOTION":1.00269797,"ECCENTRICITY":0.00013925,"INCLINATION":0.0352,"RA_OF_ASC_NODE":211.2565,"ARG_OF_PERICENTER":127.8226,"MEAN_ANOMALY":90.9951,"EPHEMERIS_TYPE":0,"CLASSIFICATION_TYPE":"U","NORAD_CAT_ID":60233,"ELEMENT_SET_NO":999,"REV_AT_EPOCH":628,"BSTAR":0,"MEAN_MOTION_DOT":1.48e-6,"MEAN_MOTION_DDOT":0},{"OBJECT_NAME":"FALCON 9 R/B","OBJECT_ID":"2024-127B","EPOCH":"2026-04-04T10:21:21.026304","MEAN_MOTION":1.03940874,"ECCENTRICITY":0.8345553,"INCLINATION":27.1389,"RA_OF_ASC_NODE":19.5064,"ARG_OF_PERICENTER":335.2913,"MEAN_ANOMALY":1.5515,"EPHEMERIS_TYPE":0,"CLASSIFICATION_TYPE":"U","NORAD_CAT_ID":60234,"ELEMENT_SET_NO":999,"REV_AT_EPOCH":632,"BSTAR":0.0044338,"MEAN_MOTION_DOT":-1.37e-6,"MEAN_MOTION_DDOT":0},{"OBJECT_NAME":"YZ-1S R/B","OBJECT_ID":"2024-048E","EPOCH":"2026-03-11T06:27:47.618496","MEAN_MOTION":0.47350856,"ECCENTRICITY":0.89693763,"INCLINATION":17.2921,"RA_OF_ASC_NODE":314.1444,"ARG_OF_PERICENTER":229.183,"MEAN_ANOMALY":359.3704,"EPHEMERIS_TYPE":0,"CLASSIFICATION_TYPE":"U","NORAD_CAT_ID":60326,"ELEMENT_SET_NO":999,"REV_AT_EPOCH":326,"BSTAR":0,"MEAN_MOTION_DOT":-1.29e-5,"MEAN_MOTION_DDOT":0},{"OBJECT_NAME":"HULIANWAN GAOGUI-02 (HG-02)","OBJECT_ID":"2024-135A","EPOCH":"2026-04-05T06:01:55.651584","MEAN_MOTION":1.00273209,"ECCENTRICITY":0.0008725,"INCLINATION":0.0505,"RA_OF_ASC_NODE":18.6098,"ARG_OF_PERICENTER":337.1857,"MEAN_ANOMALY":81.2994,"EPHEMERIS_TYPE":0,"CLASSIFICATION_TYPE":"U","NORAD_CAT_ID":60327,"ELEMENT_SET_NO":999,"REV_AT_EPOCH":676,"BSTAR":0,"MEAN_MOTION_DOT":-1.72e-6,"MEAN_MOTION_DDOT":0},{"OBJECT_NAME":"ASBM-1","OBJECT_ID":"2024-143A","EPOCH":"2026-03-29T01:25:33.401568","MEAN_MOTION":1.50424205,"ECCENTRICITY":0.55781048,"INCLINATION":62.7993,"RA_OF_ASC_NODE":48.6139,"ARG_OF_PERICENTER":269.1541,"MEAN_ANOMALY":30.1274,"EPHEMERIS_TYPE":0,"CLASSIFICATION_TYPE":"U","NORAD_CAT_ID":60422,"ELEMENT_SET_NO":999,"REV_AT_EPOCH":1041,"BSTAR":0,"MEAN_MOTION_DOT":-1.2e-7,"MEAN_MOTION_DDOT":0},{"OBJECT_NAME":"ASBM-2","OBJECT_ID":"2024-143B","EPOCH":"2026-04-04T09:00:55.745280","MEAN_MOTION":1.50423925,"ECCENTRICITY":0.55767877,"INCLINATION":62.7722,"RA_OF_ASC_NODE":48.4395,"ARG_OF_PERICENTER":269.2231,"MEAN_ANOMALY":30.1124,"EPHEMERIS_TYPE":0,"CLASSIFICATION_TYPE":"U","NORAD_CAT_ID":60423,"ELEMENT_SET_NO":999,"REV_AT_EPOCH":1049,"BSTAR":0,"MEAN_MOTION_DOT":-4.1e-7,"MEAN_MOTION_DDOT":0},{"OBJECT_NAME":"ZHONGXING-4A","OBJECT_ID":"2024-151A","EPOCH":"2026-04-05T12:35:38.793120","MEAN_MOTION":1.00273009,"ECCENTRICITY":0.00012045,"INCLINATION":1.5025,"RA_OF_ASC_NODE":271.6303,"ARG_OF_PERICENTER":106.1994,"MEAN_ANOMALY":123.1274,"EPHEMERIS_TYPE":0,"CLASSIFICATION_TYPE":"U","NORAD_CAT_ID":60606,"ELEMENT_SET_NO":999,"REV_AT_EPOCH":602,"BSTAR":0,"MEAN_MOTION_DOT":-3.62e-6,"MEAN_MOTION_DDOT":0},{"OBJECT_NAME":"HULIANWAN GAOGUI-03 (HG-03)","OBJECT_ID":"2024-181A","EPOCH":"2026-04-04T00:26:27.961152","MEAN_MOTION":1.00274413,"ECCENTRICITY":7.408e-5,"INCLINATION":0.0528,"RA_OF_ASC_NODE":21.6745,"ARG_OF_PERICENTER":110.0044,"MEAN_ANOMALY":350.1418,"EPHEMERIS_TYPE":0,"CLASSIFICATION_TYPE":"U","NORAD_CAT_ID":61503,"ELEMENT_SET_NO":999,"REV_AT_EPOCH":608,"BSTAR":0,"MEAN_MOTION_DOT":-2.42e-6,"MEAN_MOTION_DDOT":0},{"OBJECT_NAME":"DSN-3 (KIRAMEKI-3)","OBJECT_ID":"2024-198A","EPOCH":"2026-04-05T13:27:38.734272","MEAN_MOTION":1.00270725,"ECCENTRICITY":9.247e-5,"INCLINATION":0.0164,"RA_OF_ASC_NODE":201.7014,"ARG_OF_PERICENTER":156.8374,"MEAN_ANOMALY":181.2949,"EPHEMERIS_TYPE":0,"CLASSIFICATION_TYPE":"U","NORAD_CAT_ID":61733,"ELEMENT_SET_NO":999,"REV_AT_EPOCH":519,"BSTAR":0,"MEAN_MOTION_DOT":0,"MEAN_MOTION_DDOT":0},{"OBJECT_NAME":"KOREASAT 6A","OBJECT_ID":"2024-206A","EPOCH":"2026-04-05T13:52:12.628416","MEAN_MOTION":1.00272324,"ECCENTRICITY":0.00011043,"INCLINATION":0.0095,"RA_OF_ASC_NODE":191.1586,"ARG_OF_PERICENTER":184.2377,"MEAN_ANOMALY":142.5337,"EPHEMERIS_TYPE":0,"CLASSIFICATION_TYPE":"U","NORAD_CAT_ID":61910,"ELEMENT_SET_NO":999,"REV_AT_EPOCH":511,"BSTAR":0,"MEAN_MOTION_DOT":-3.6e-6,"MEAN_MOTION_DDOT":0},{"OBJECT_NAME":"INTELSAT 33E DEB","OBJECT_ID":"2016-053E","EPOCH":"2026-04-04T20:23:03.636960","MEAN_MOTION":0.99843949,"ECCENTRICITY":0.0025678,"INCLINATION":1.5421,"RA_OF_ASC_NODE":95.0887,"ARG_OF_PERICENTER":109.8019,"MEAN_ANOMALY":251.2514,"EPHEMERIS_TYPE":0,"CLASSIFICATION_TYPE":"U","NORAD_CAT_ID":61988,"ELEMENT_SET_NO":999,"REV_AT_EPOCH":530,"BSTAR":0,"MEAN_MOTION_DOT":-2.75e-6,"MEAN_MOTION_DDOT":0},{"OBJECT_NAME":"INTELSAT 33E DEB","OBJECT_ID":"2016-053F","EPOCH":"2026-04-04T14:52:41.041344","MEAN_MOTION":0.9804992,"ECCENTRICITY":0.01933179,"INCLINATION":2.3517,"RA_OF_ASC_NODE":112.9693,"ARG_OF_PERICENTER":150.4175,"MEAN_ANOMALY":211.3212,"EPHEMERIS_TYPE":0,"CLASSIFICATION_TYPE":"U","NORAD_CAT_ID":61989,"ELEMENT_SET_NO":999,"REV_AT_EPOCH":512,"BSTAR":0,"MEAN_MOTION_DOT":-3.0e-8,"MEAN_MOTION_DDOT":0},{"OBJECT_NAME":"INTELSAT 33E DEB","OBJECT_ID":"2016-053G","EPOCH":"2026-04-04T14:27:44.626176","MEAN_MOTION":1.0139401,"ECCENTRICITY":0.0147073,"INCLINATION":1.279,"RA_OF_ASC_NODE":75.086,"ARG_OF_PERICENTER":314.0411,"MEAN_ANOMALY":45.4314,"EPHEMERIS_TYPE":0,"CLASSIFICATION_TYPE":"U","NORAD_CAT_ID":61990,"ELEMENT_SET_NO":999,"REV_AT_EPOCH":540,"BSTAR":0,"MEAN_MOTION_DOT":6.6e-7,"MEAN_MOTION_DDOT":0},{"OBJECT_NAME":"INTELSAT 33E DEB","OBJECT_ID":"2016-053H","EPOCH":"2026-04-05T02:52:30.269856","MEAN_MOTION":1.02042766,"ECCENTRICITY":0.012283,"INCLINATION":1.4827,"RA_OF_ASC_NODE":93.5462,"ARG_OF_PERICENTER":253.4818,"MEAN_ANOMALY":105.9183,"EPHEMERIS_TYPE":0,"CLASSIFICATION_TYPE":"U","NORAD_CAT_ID":61991,"ELEMENT_SET_NO":999,"REV_AT_EPOCH":544,"BSTAR":0,"MEAN_MOTION_DOT":-7.5e-7,"MEAN_MOTION_DDOT":0},{"OBJECT_NAME":"INTELSAT 33E DEB","OBJECT_ID":"2016-053J","EPOCH":"2026-04-04T17:36:34.476768","MEAN_MOTION":1.00792403,"ECCENTRICITY":0.0057784,"INCLINATION":1.3734,"RA_OF_ASC_NODE":84.8378,"ARG_OF_PERICENTER":295.8864,"MEAN_ANOMALY":64.2754,"EPHEMERIS_TYPE":0,"CLASSIFICATION_TYPE":"U","NORAD_CAT_ID":61992,"ELEMENT_SET_NO":999,"REV_AT_EPOCH":537,"BSTAR":0,"MEAN_MOTION_DOT":-4.0e-8,"MEAN_MOTION_DDOT":0}]
